#dP2023  7  5 12  0  0.00000000      96 __u+U ITR00 EXT  IAC
## 2269 302400.00000000   900.00000000 60130 0.5000000000000
+  119   C06C07C08C09C10C11C12C13C14C16C19C20C21C22C23C24C25
+        C26C27C28C29C30C32C33C34C35C36C37C38C39C40C41C42C43
+        C44C45C46E02E03E04E05E07E08E09E10E11E12E13E14E15E18
+        E19E21E24E25E26E27E30E31E33E34E36G01G02G03G04G05G06
+        G07G08G09G10G11G12G13G14G15G16G17G18G19G20G21G22G23
+        G24G25G26G27G28G29G30G31G32J02J03J04R01R02R03R04R05
+        R07R08R09R11R12R13R14R15R16R17R18R19R20R21R22R24R25
++         9  9  7  9  7  8  9  9  9  9  8  8  7  9  9  8  7
++         8  7  8  9  8  7  7  7  8  8  8 10 10 10  8  7  9
++         8  8  7  7  7  8  7  7  7  8 10  7  8  7  7  6  7
++         8  7  7  7  8  8  8  7 13  8  8  8  7  7  7  9  7
++         6  8  7  7  8  7  9  7  8  7  7  8  7  7  7  7  7
++         8  7  8  8  7  7  8  8  7  9  9 10  8  8  8  8  9
++         8  9  8  7  8  8  9  8  8  8  8  8 10  8  8  7  7
%c M  cc GPS ccc cccc cccc cccc cccc ccccc ccccc ccccc ccccc
%c cc cc ccc ccc cccc cccc cccc cccc ccccc ccccc ccccc ccccc
%f  0.0000000  0.000000000  0.00000000000  0.000000000000000
%f  0.0000000  0.000000000  0.00000000000  0.000000000000000
%i    0    0    0    0      0      0      0      0         0
%i    0    0    0    0      0      0      0      0         0
/* IAC                                ULTRA-RAPID PREDICTION
/* S/V CLOCKS ARE ALIGNED TO GNSS TIME                      
/* G:C1WC2W R:C1PC2P E:C1XC5X C:C2IC6I J:C1CC2S             
/* PCV:IGS20_2247 OL/AL:FES2004  NONE     YN ORB:CoN CLK:CoN
*  2023 07 05 15 45  0.00000000
PC06  -9477.194215  23010.829185  34048.527887   -165.437578
PC07 -14784.209107  37836.073529 -11647.405772   -276.698910
PC08    403.088065  36616.372991 -20723.850543    438.248034
PC09   2067.440387  25705.205046  33863.695016    452.671286
PC10 -10285.014318  37876.408432 -15786.856091   -105.665435
PC11     68.424949 -15415.987275  23322.066651    710.276499
PC12  19950.873698 -10646.858652  16372.865444    764.605072
PC13   5153.716254  38997.186939 -14645.485280    309.713944
PC14   4866.430001 -24876.332825 -11588.890499    516.707283
PC16  -9584.406293  22561.872177  34535.298298     17.599717
PC19   2904.350980  20628.552431  18604.199322   -934.267482
PC20 -10803.454326  25367.251751   4440.649399    456.823365
PC21  19129.991166 -15048.877958  13636.354286   -930.995648
PC22  15652.816712   3781.879793  22783.933706   -409.835168
PC23 -19671.613404 -15068.495041  12845.578803   -956.164801
PC24   3676.264393 -20372.867215 -18727.266618    139.370797
PC25 -12570.686828 -24701.374640  -3343.007088    161.627748
PC26  15789.991203  -5188.844743 -22424.376180   -144.483508
PC27 -25453.468537   6547.797753  -9393.988503    165.187624
PC28 -26602.851358  -4815.401230   6932.170538    122.997109
PC29  11649.603771  14226.740332 -21000.382960    143.218969
PC30 -10500.759881  15098.953929 -20994.407754     -1.902308
PC32 -19025.069266  15169.680892 -13666.310955   -541.833964
PC33  -2981.908475 -20652.502455 -18516.869258   -907.467203
PC34   9055.317160 -15390.485681  21432.843135    208.169959
PC35  26611.274159   4178.723413  -7373.358998    594.540787
PC36  11448.932688  25118.415640   4102.063010   -345.621732
PC37 -16446.872342   3689.334402  22260.836135   -790.306299
PC38  -5551.751378  32718.604462 -25874.450701     89.606280
PC39 -16669.005039  20573.158590  32799.572489     -3.672477
PC40 -22766.777524  34215.690623  -9972.376719    -28.431069
PC41 -15364.501363  -4425.415902 -22821.648834   -908.054279
PC42  11691.315176 -25138.262430  -2999.334437   -623.333507
PC43 -10694.276734 -14594.690424  21227.469911     29.321742
PC44  25319.698041  -7404.846985   9125.414072    159.341889
PC45  19644.154694  14685.311146 -13286.973770   -118.823733
PC46  -2469.605037  21171.250832  17997.512437    -66.634698
PE02  16449.317661  -6816.508437 -23646.880493     48.019649
PE03  27164.185678 -10260.814523   5703.735846    -33.081147
PE04 -18151.511668  19820.279637  12420.456345   -159.996992
PE05  20392.677382   5456.317329  20754.141160     -3.207617
PE07  -1415.068895 -17972.915932 -23465.865264    -57.746088
PE08  18447.924998 -19691.355483 -12149.642902   -109.717698
PE09   1174.175327  17933.168546  23529.123179    -74.092292
PE10   1839.772846  18461.860926 -23076.935494   -546.283306
PE11  12576.945838  20645.027211 -17107.629061   2407.527242
PE12  -8305.101036  13784.044378 -24854.688285   -606.529247
PE13 -11941.725835 -20535.327264  17652.017239    -19.316367
PE14 -24628.390711  18667.215138  -8697.467116    273.628802
PE15   8624.928996 -13491.213955  24891.438004    -34.745913
PE18  20507.226651 -11784.073077   3580.904793    261.167228
PE19 -27219.440886   8324.297460  -8116.490676  -2144.398421
PE21 -14331.199851 -14505.223157  21458.426145   -538.968011
PE24   3285.988702  28772.065877  -6094.779857   -192.865255
PE25  14201.251391  14869.029287 -21284.558770   -607.838900
PE26 -25463.812944 -15086.302442   -565.840397    154.176903
PE27  -3808.365520 -28577.242410   6725.337066    -91.704683
PE30   9245.211003 -25332.608551 -12219.924889   -311.087148
PE31  -8853.448575  25656.391536  11824.196889      0.250092
PE33 -23916.354438  -1448.363175 -17381.619833   -442.328761
PE34  23849.338491   1298.049865  17463.993194    -54.472733
PE36  25236.324471  15474.548984   -193.068909    -81.459721
PG01  22170.511961  14958.393190    178.931443    174.446025
PG02  20819.327742  15544.355699  -5368.838113   -579.174477
PG03  12602.745398  12261.644546  19804.154863   -244.680765
PG04  20178.230151   3661.524546  16953.119223     87.243902
PG05  -5728.765278 -24442.463298  -8677.576625   -133.735047
PG06   8222.207457 -12091.038495  22231.439825    580.512613
PG07  22603.220022   3339.071428 -13472.117597    133.622541
PG08  10489.118431  11573.152081 -21591.856625   -130.686795
PG09  24237.831132  -5408.287160   9402.993784   -119.527514
PG10 -11033.772272  18719.312355 -14874.658823    -43.951071
PG11  -6852.701163 -19406.323992  16818.267900   -263.366486
PG12 -10497.096990 -16213.077328  17989.160269   -397.018848
PG13  -1328.609697 -15334.524769 -21806.637139    543.157668
PG14  13354.966327 -15703.422336 -16642.024751    112.706793
PG15 -12524.078003 -10588.566351 -21388.389817     55.208573
PG16    181.755809  25775.397518  -5617.526191   -484.184724
PG17  21333.542365 -14437.747916   7131.554928    720.277454
PG18 -20949.212665   -781.072837 -16408.453261   -334.133796
PG19  16536.391499 -15754.313594  13061.479485    339.819035
PG20  -1494.267420 -26541.851769   2086.645350    424.306717
PG21  19453.061972  16717.354562  -7905.307432    152.478220
PG22 -12945.182405  17184.396731  15923.552959    508.317454
PG23 -14591.646057   6328.060901 -21238.967913     40.054343
PG24 -21393.980236 -15485.758298  -4831.864767   -247.929826
PG25 -15112.118277  -2530.478936  21394.364906    454.224643
PG26  -4836.425244  24949.652009   6964.457229    237.332985
PG27  -2021.148062  16911.490504 -20523.778310      3.004913
PG28  -9974.530073  11650.772927  21663.867119     83.339019
PG29 -24215.478746   2119.411726  10769.420387   -604.757070
PG30  17054.397167  -5890.234872 -19451.859752   -506.419787
PG31   1087.497029  17586.888483  19566.887620   -219.499849
PG32 -18925.733425  16495.778372   8540.845210   -514.919889
PJ02 -29308.142933  25383.367528  21722.935232     -1.091753
PJ03 -28300.277745  17258.887757 -21480.564777      0.048508
PJ04 -22897.608337  34444.245360  -3722.049020     96.337439
PR01 -14516.730634  20751.916606   3118.944996     60.788509
PR02  -2783.581335  16924.815717  18898.532633    -22.621370
PR03  10839.635594   3795.444201  22827.639650     80.972829
PR04  18064.402226 -11095.820678  14222.986409    193.866886
PR05  15730.733659 -19981.382865  -2126.206033    115.284977
PR07 -11284.077540  -3112.264895 -22617.945399     59.507973
PR08 -18047.427198  11351.672864 -13921.908609    -71.539612
PR09  -8093.271504 -23981.577084  -2779.689505    129.533950
PR11 -11829.151001   -881.195627  22593.550415    -96.736098
PR12  -2781.948677  17583.994056  18292.855496     28.784107
PR13   6860.359729  24094.577063   4799.171107    -36.762779
PR14  13537.367864  16589.880203 -13863.740299     24.898186
PR15  11527.776250   -389.975797 -22727.432772     88.071205
PR16   2711.695669 -17319.759982 -18498.542377     16.348908
PR17  22601.104879   8036.252896  -8612.763254     -2.861818
PR18  24202.830806    882.359927   8088.317296     90.062597
PR19  14804.732590  -5824.746636  19928.625547   -238.744498
PR20  -7024.136210 -11428.414007  21688.308849    -96.010118
PR21 -23191.821542  -7702.940332   7358.328422    -20.430686
PR22 -23869.419994  -1046.066402  -8898.644931     90.006152
PR24   8016.752715  11616.888240 -21232.707359    -15.160972
PR25 -22181.046396  -9199.740587   8638.327035   -248.498431
EOF
